NUSAT-26 (M SOMERVILLE) 
1 52184U 22033AD  26196.91079265  .00010179  00000+0  23066-3 0  9990
2 52184  97.2342 275.7865 0007047 134.8750 225.3071 15.43260777109131
NUSAT-33 (ALBANIA-2)    
1 55047U 23001AQ  26196.95803067  .00004822  00000+0  17771-3 0  9990
2 55047  97.3054 257.3136 0004782 311.3049  48.7779 15.28272611196700
NUSAT-35 (WILLIAMINA)   
1 55048U 23001AR  26196.96860255  .00007522  00000+0  21761-3 0  9998
2 55048  97.1834 248.9997 0010374   7.4518 352.6878 15.35836022196824
NUSAT-39 (TIKVAH ALPER) 
1 56201U 23054Z   26196.82250094  .00017147  00000+0  32916-3 0  9995
2 56201  97.3094 106.8645 0001761 318.7974  41.3143 15.48038664182880
NUSAT-38 (MARIA AGNESI) 
1 56202U 23054AA  26196.94504810  .00019773  00000+0  33864-3 0  9997
2 56202  97.3033 107.7269 0008672 324.3977  35.6696 15.51228123182963
NUSAT-37 (JOAN CLARKE)  
1 56203U 23054AB  26196.99912351  .00029386  00000+0  36863-3 0  9999
2 56203  97.2603 104.6668 0007948 141.6036 218.5788 15.59660825183137
NUSAT-40 (C SHOEMAKER)  
1 56943U 23084M   26196.28693968  .00110286  00000+0  52772-3 0  9992
2 56943  97.4871 345.1594 0004102 188.3237 171.7964 15.82453201173248
NUSAT-41 (C PAYNE-G)    
1 56944U 23084N   26196.96716378  .00005847  00000+0  20295-3 0  9990
2 56944  97.5554 334.1481 0006544 208.0406 152.0483 15.30162437172182
NUSAT-42 (M WONENBURGER)
1 56966U 23084AL  26196.96871726  .00012918  00000+0  26167-3 0  9994
2 56966  97.5751 342.3203 0006806 143.5649 216.6065 15.46528690172526
NUSAT-44 (MARIA MITCHE*)
1 59122U 24043AA  26196.92312256  .00005688  00000+0  19937-3 0  9994
2 59122  97.5486 337.6257 0006506 129.5830 230.5985 15.29857972131662
NUSAT-50 (NANCY ROMAN)  
1 60493U 24149AB  26196.74706894  .00004973  00000+0  17214-3 0  9991
2 60493  97.3783 277.8114 0004846 100.1196 260.0592 15.30324545106497
NUSAT-48 (HENRIETTA LE*)
1 60498U 24149AG  26196.93226976  .00004930  00000+0  17089-3 0  9998
2 60498  97.3919 278.2890 0004850 156.5016 203.6448 15.30282290106538
NUSAT-49 (KLARA DAN VO*)
1 60500U 24149AJ  26196.18946143  .00002557  00000+0  91264-4 0  9995
2 60500  97.3783 277.2885 0002688 166.4969 193.6344 15.29782935106417
NUSAT-45 (UZMASAT-1)    
1 62640U 25009AH  26196.76677397  .00004957  00000+0  17127-3 0  9995
2 62640  97.3592 277.7105 0001956 175.8714 184.2543 15.30386447 83298
NUSAT-52                
1 66692U 25276AC  26196.12815113  .00002775  00000+0  13189-3 0  9992
2 66692  97.4199 269.2150 0001591 279.5231  80.5824 15.20036524 34664
NUSAT-51 (YVONNE BRILL) 
1 66740U 25276CC  26196.91903110  .00003036  00000+0  14178-3 0  9998
2 66740  97.4203 270.1367 0001791 232.2792 127.8281 15.20570904 34796
