{"fetched_at":"2026-07-16T06:43:09.375Z","source":"https://celestrak.org/NORAD/elements/gp.php?NAME=NUSAT&FORMAT=JSON","constellation":"satellogic","records":[{"OBJECT_NAME":"NUSAT-26 (M SOMERVILLE)","OBJECT_ID":"2022-033AD","EPOCH":"2026-07-15T21:51:32.484960","CLASSIFICATION_TYPE":"U","MEAN_MOTION":15.43260777,"ECCENTRICITY":0.00070476,"INCLINATION":97.2342,"RA_OF_ASC_NODE":275.7865,"ARG_OF_PERICENTER":134.875,"MEAN_ANOMALY":225.3071,"EPHEMERIS_TYPE":0,"NORAD_CAT_ID":52184,"ELEMENT_SET_NO":999,"REV_AT_EPOCH":10913,"BSTAR":0.00023066403,"MEAN_MOTION_DOT":0.00010179,"MEAN_MOTION_DDOT":0},{"OBJECT_NAME":"NUSAT-33 (ALBANIA-2)","OBJECT_ID":"2023-001AQ","EPOCH":"2026-07-15T22:59:33.849888","CLASSIFICATION_TYPE":"U","MEAN_MOTION":15.28272611,"ECCENTRICITY":0.00047823,"INCLINATION":97.3054,"RA_OF_ASC_NODE":257.3136,"ARG_OF_PERICENTER":311.3049,"MEAN_ANOMALY":48.7779,"EPHEMERIS_TYPE":0,"NORAD_CAT_ID":55047,"ELEMENT_SET_NO":999,"REV_AT_EPOCH":19670,"BSTAR":0.000177708,"MEAN_MOTION_DOT":0.00004822,"MEAN_MOTION_DDOT":0},{"OBJECT_NAME":"NUSAT-35 (WILLIAMINA)","OBJECT_ID":"2023-001AR","EPOCH":"2026-07-15T23:14:47.260320","CLASSIFICATION_TYPE":"U","MEAN_MOTION":15.35836022,"ECCENTRICITY":0.00103741,"INCLINATION":97.1834,"RA_OF_ASC_NODE":248.9997,"ARG_OF_PERICENTER":7.4518,"MEAN_ANOMALY":352.6878,"EPHEMERIS_TYPE":0,"NORAD_CAT_ID":55048,"ELEMENT_SET_NO":999,"REV_AT_EPOCH":19682,"BSTAR":0.00021761329,"MEAN_MOTION_DOT":0.00007522,"MEAN_MOTION_DDOT":0},{"OBJECT_NAME":"NUSAT-39 (TIKVAH ALPER)","OBJECT_ID":"2023-054Z","EPOCH":"2026-07-15T19:44:24.081216","CLASSIFICATION_TYPE":"U","MEAN_MOTION":15.48038664,"ECCENTRICITY":0.00017613,"INCLINATION":97.3094,"RA_OF_ASC_NODE":106.8645,"ARG_OF_PERICENTER":318.7974,"MEAN_ANOMALY":41.3143,"EPHEMERIS_TYPE":0,"NORAD_CAT_ID":56201,"ELEMENT_SET_NO":999,"REV_AT_EPOCH":18288,"BSTAR":0.00032916312,"MEAN_MOTION_DOT":0.00017147,"MEAN_MOTION_DDOT":0},{"OBJECT_NAME":"NUSAT-38 (MARIA AGNESI)","OBJECT_ID":"2023-054AA","EPOCH":"2026-07-15T22:40:52.155840","CLASSIFICATION_TYPE":"U","MEAN_MOTION":15.51228123,"ECCENTRICITY":0.00086729,"INCLINATION":97.3033,"RA_OF_ASC_NODE":107.7269,"ARG_OF_PERICENTER":324.3977,"MEAN_ANOMALY":35.6696,"EPHEMERIS_TYPE":0,"NORAD_CAT_ID":56202,"ELEMENT_SET_NO":999,"REV_AT_EPOCH":18296,"BSTAR":0.00033863594,"MEAN_MOTION_DOT":0.00019773,"MEAN_MOTION_DDOT":0},{"OBJECT_NAME":"NUSAT-37 (JOAN CLARKE)","OBJECT_ID":"2023-054AB","EPOCH":"2026-07-15T23:58:44.271264","CLASSIFICATION_TYPE":"U","MEAN_MOTION":15.59660825,"ECCENTRICITY":0.00079481,"INCLINATION":97.2603,"RA_OF_ASC_NODE":104.6668,"ARG_OF_PERICENTER":141.6036,"MEAN_ANOMALY":218.5788,"EPHEMERIS_TYPE":0,"NORAD_CAT_ID":56203,"ELEMENT_SET_NO":999,"REV_AT_EPOCH":18313,"BSTAR":0.00036863304,"MEAN_MOTION_DOT":0.00029386,"MEAN_MOTION_DDOT":0},{"OBJECT_NAME":"NUSAT-40 (C SHOEMAKER)","OBJECT_ID":"2023-084M","EPOCH":"2026-07-15T06:53:11.588352","CLASSIFICATION_TYPE":"U","MEAN_MOTION":15.82453201,"ECCENTRICITY":0.00041022,"INCLINATION":97.4871,"RA_OF_ASC_NODE":345.1594,"ARG_OF_PERICENTER":188.3237,"MEAN_ANOMALY":171.7964,"EPHEMERIS_TYPE":0,"NORAD_CAT_ID":56943,"ELEMENT_SET_NO":999,"REV_AT_EPOCH":17324,"BSTAR":0.00052771678,"MEAN_MOTION_DOT":0.00110286,"MEAN_MOTION_DDOT":0},{"OBJECT_NAME":"NUSAT-41 (C PAYNE-G)","OBJECT_ID":"2023-084N","EPOCH":"2026-07-15T23:12:42.950592","CLASSIFICATION_TYPE":"U","MEAN_MOTION":15.30162437,"ECCENTRICITY":0.00065441,"INCLINATION":97.5554,"RA_OF_ASC_NODE":334.1481,"ARG_OF_PERICENTER":208.0406,"MEAN_ANOMALY":152.0483,"EPHEMERIS_TYPE":0,"NORAD_CAT_ID":56944,"ELEMENT_SET_NO":999,"REV_AT_EPOCH":17218,"BSTAR":0.00020294963,"MEAN_MOTION_DOT":0.00005847,"MEAN_MOTION_DDOT":0},{"OBJECT_NAME":"NUSAT-42 (M WONENBURGER)","OBJECT_ID":"2023-084AL","EPOCH":"2026-07-15T23:14:57.171264","CLASSIFICATION_TYPE":"U","MEAN_MOTION":15.4652869,"ECCENTRICITY":0.00068063,"INCLINATION":97.5751,"RA_OF_ASC_NODE":342.3203,"ARG_OF_PERICENTER":143.5649,"MEAN_ANOMALY":216.6065,"EPHEMERIS_TYPE":0,"NORAD_CAT_ID":56966,"ELEMENT_SET_NO":999,"REV_AT_EPOCH":17252,"BSTAR":0.00026166923,"MEAN_MOTION_DOT":0.00012918,"MEAN_MOTION_DDOT":0},{"OBJECT_NAME":"NUSAT-44 (MARIA MITCHELL)","OBJECT_ID":"2024-043AA","EPOCH":"2026-07-15T22:09:17.789184","CLASSIFICATION_TYPE":"U","MEAN_MOTION":15.29857972,"ECCENTRICITY":0.00065069,"INCLINATION":97.5486,"RA_OF_ASC_NODE":337.6257,"ARG_OF_PERICENTER":129.583,"MEAN_ANOMALY":230.5985,"EPHEMERIS_TYPE":0,"NORAD_CAT_ID":59122,"ELEMENT_SET_NO":999,"REV_AT_EPOCH":13166,"BSTAR":0.00019936567,"MEAN_MOTION_DOT":0.00005688,"MEAN_MOTION_DDOT":0},{"OBJECT_NAME":"NUSAT-50 (NANCY ROMAN)","OBJECT_ID":"2024-149AB","EPOCH":"2026-07-15T17:55:46.756416","CLASSIFICATION_TYPE":"U","MEAN_MOTION":15.30324545,"ECCENTRICITY":0.00048461,"INCLINATION":97.3783,"RA_OF_ASC_NODE":277.8114,"ARG_OF_PERICENTER":100.1196,"MEAN_ANOMALY":260.0592,"EPHEMERIS_TYPE":0,"NORAD_CAT_ID":60493,"ELEMENT_SET_NO":999,"REV_AT_EPOCH":10649,"BSTAR":0.00017213591,"MEAN_MOTION_DOT":0.00004973,"MEAN_MOTION_DDOT":0},{"OBJECT_NAME":"NUSAT-48 (HENRIETTA LEAVITT)","OBJECT_ID":"2024-149AG","EPOCH":"2026-07-15T22:22:28.107264","CLASSIFICATION_TYPE":"U","MEAN_MOTION":15.3028229,"ECCENTRICITY":0.00048504,"INCLINATION":97.3919,"RA_OF_ASC_NODE":278.289,"ARG_OF_PERICENTER":156.5016,"MEAN_ANOMALY":203.6448,"EPHEMERIS_TYPE":0,"NORAD_CAT_ID":60498,"ELEMENT_SET_NO":999,"REV_AT_EPOCH":10653,"BSTAR":0.0001708858,"MEAN_MOTION_DOT":0.0000493,"MEAN_MOTION_DDOT":0},{"OBJECT_NAME":"NUSAT-49 (KLARA DAN VON NEUMANN)","OBJECT_ID":"2024-149AJ","EPOCH":"2026-07-15T04:32:49.467552","CLASSIFICATION_TYPE":"U","MEAN_MOTION":15.29782935,"ECCENTRICITY":0.00026888,"INCLINATION":97.3783,"RA_OF_ASC_NODE":277.2885,"ARG_OF_PERICENTER":166.4969,"MEAN_ANOMALY":193.6344,"EPHEMERIS_TYPE":0,"NORAD_CAT_ID":60500,"ELEMENT_SET_NO":999,"REV_AT_EPOCH":10641,"BSTAR":0.000091263762,"MEAN_MOTION_DOT":0.00002557,"MEAN_MOTION_DDOT":0},{"OBJECT_NAME":"NUSAT-45 (UZMASAT-1)","OBJECT_ID":"2025-009AH","EPOCH":"2026-07-15T18:24:09.271008","CLASSIFICATION_TYPE":"U","MEAN_MOTION":15.30386447,"ECCENTRICITY":0.0001956,"INCLINATION":97.3592,"RA_OF_ASC_NODE":277.7105,"ARG_OF_PERICENTER":175.8714,"MEAN_ANOMALY":184.2543,"EPHEMERIS_TYPE":0,"NORAD_CAT_ID":62640,"ELEMENT_SET_NO":999,"REV_AT_EPOCH":8329,"BSTAR":0.00017127285,"MEAN_MOTION_DOT":0.00004957,"MEAN_MOTION_DDOT":0},{"OBJECT_NAME":"NUSAT-52","OBJECT_ID":"2025-276AC","EPOCH":"2026-07-15T03:04:32.257632","CLASSIFICATION_TYPE":"U","MEAN_MOTION":15.20036524,"ECCENTRICITY":0.00015916,"INCLINATION":97.4199,"RA_OF_ASC_NODE":269.215,"ARG_OF_PERICENTER":279.5231,"MEAN_ANOMALY":80.5824,"EPHEMERIS_TYPE":0,"NORAD_CAT_ID":66692,"ELEMENT_SET_NO":999,"REV_AT_EPOCH":3466,"BSTAR":0.00013188591,"MEAN_MOTION_DOT":0.00002775,"MEAN_MOTION_DDOT":0},{"OBJECT_NAME":"NUSAT-51 (YVONNE BRILL)","OBJECT_ID":"2025-276CC","EPOCH":"2026-07-15T22:03:24.287040","CLASSIFICATION_TYPE":"U","MEAN_MOTION":15.20570904,"ECCENTRICITY":0.00017914,"INCLINATION":97.4203,"RA_OF_ASC_NODE":270.1367,"ARG_OF_PERICENTER":232.2792,"MEAN_ANOMALY":127.8281,"EPHEMERIS_TYPE":0,"NORAD_CAT_ID":66740,"ELEMENT_SET_NO":999,"REV_AT_EPOCH":3479,"BSTAR":0.00014177669,"MEAN_MOTION_DOT":0.00003036,"MEAN_MOTION_DDOT":0}]}
